LUCAS (JDRS-1)          
1 47202U 20089A   22122.06438181 -.00000234  00000+0  00000+0 0  9992
2 47202   0.0121 259.8080 0003067 128.5670 305.5176  1.00274520  5281
FALCON EYE 2            
1 47226U 20090A   22122.09379235  .00001585  00000+0  19267-3 0  9995
2 47226  97.8497 197.4824 0001417  89.6673 270.4713 14.84885901 76582
GONETS-M 20             
1 47227U 20091A   22122.41610901  .00000017  00000+0  51350-4 0  9990
2 47227  82.5049 159.0045 0019609 225.9124 134.0342 12.42873271 64022
GONETS-M 21             
1 47228U 20091B   22122.06964916  .00000049  00000+0  28545-3 0  9994
2 47228  82.4971 158.8655 0013316 239.1248 120.8525 12.42889564 63974
GONETS-M 22             
1 47229U 20091C   22122.36440899  .00000041  00000+0  22235-3 0  9999
2 47229  82.5028 158.8773 0020739 219.6290 140.3276 12.42883303 64007
COSMOS 2548             
1 47230U 20091D   22121.88492189  .00000039  00000+0  20756-3 0  9999
2 47230  82.4987 159.0957 0014033 238.8863 121.0840 12.42884911 63804
GAOFEN 14               
1 47231U 20092A   22122.28345145  .00008868  00000+0  35063-3 0  9990
2 47231  97.3865 200.5974 0002610   6.8265  68.4321 15.25706078 78077
GECAM-A                 
1 47234U 20094A   22122.10724793  .00002144  00000+0  19762-3 0  9995
2 47234  29.0000  10.9845 0012506 133.0779 227.0867 14.91121938 75872
GECAM-B                 
1 47235U 20094B   22122.07644082  .00002433  00000+0  22541-3 0  9994
2 47235  29.0004  10.7235 0012959 132.5875 227.5820 14.91238200 75876
SXM-7                   
1 47240U 20096A   22121.98505661 -.00000020  00000+0  00000+0 0  9993
2 47240   0.0136  89.0593 0002138 100.9082 269.2218  1.00270454  5229
IPM 2 & BREEZE-M R/B    
1 47242U 20097A   22121.66979323 -.00000121  00000+0  00000+0 0  9993
2 47242   1.2849  96.4258 0085350 233.3282 126.1545  0.95298567  4899
STRIX-ALPHA             
1 47253U 20098A   22122.52134439  .00018124  00000+0  72093-3 0  9999
2 47253  97.3250  13.8817 0012215 341.4331 140.8368 15.25262214 76527
CMS-01                  
1 47256U 20099A   22122.49771848 -.00000162  00000+0  00000+0 0  9999
2 47256   0.1235  97.2485 0004940 191.2749 194.0053  1.00271548  5085
ONEWEB-0102             
1 47258U 20100A   22122.45908658  .00000409  00000+0  11025-2 0  9996
2 47258  87.8800 290.0908 0001564  83.5381 276.5926 13.12443788 67091
ONEWEB-0109             
1 47259U 20100B   22122.47064907 -.00000725  00000+0 -20511-2 0  9992
2 47259  87.8847 290.1168 0001806 103.5652 256.5678 13.12446833 66922
ONEWEB-0110             
1 47260U 20100C   22122.18880224 -.00000376  00000+0 -10805-2 0  9997
2 47260  87.8850 290.1384 0001449  81.5370 278.5923 13.12443691 67054
ONEWEB-0111             
1 47261U 20100D   22121.83763167  .00000464  00000+0  12530-2 0  9998
2 47261  87.8823 290.2199 0001565  83.9407 276.1900 13.12444799 66841
ONEWEB-0114             
1 47262U 20100E   22122.47986973 -.00000161  00000+0 -48238-3 0  9993
2 47262  87.8885 290.0437 0001288 101.7249 258.4024 13.12440756 66881
ONEWEB-0117             
1 47263U 20100F   22122.47294451 -.00001324  00000+0 -37146-2 0  9994
2 47263  87.8846 290.1179 0001959  90.0798 270.0555 13.12449687 66899
ONEWEB-0118             
1 47264U 20100G   22121.89308490 -.00000198  00000+0 -58653-3 0  9994
2 47264  87.8844 290.1841 0001805 118.3819 241.7491 13.12444536 67019
ONEWEB-0119             
1 47265U 20100H   22122.53072550  .00000479  00000+0  12950-2 0  9991
2 47265  87.8797 290.0804 0001617  89.0051 271.1263 13.12443354 67075
ONEWEB-0120             
1 47266U 20100J   22121.95084285 -.00000391  00000+0 -11233-2 0  9993
2 47266  87.8871 290.2497 0001371  94.9501 265.1784 13.12441914 67027
ONEWEB-0121             
1 47267U 20100K   22122.16339853  .00000100  00000+0  24393-3 0  9990
2 47267  87.8841 290.2509 0001729  85.0427 275.0898 13.12440234 66966
ONEWEB-0122             
1 47268U 20100L   22122.53765319  .00000422  00000+0  11375-2 0  9994
2 47268  87.8882 290.0758 0001553  90.0313 270.0994 13.12441661 66924
ONEWEB-0123             
1 47269U 20100M   22121.84688481  .00000366  00000+0  98284-3 0  9994
2 47269  87.8813 290.2142 0001600  93.9601 266.1711 13.12439997 66970
ONEWEB-0124             
1 47270U 20100N   22121.98550884  .00000163  00000+0  41655-3 0  9991
2 47270  87.8904 290.1130 0001985  82.9308 277.2046 13.12445273 66874
ONEWEB-0125             
1 47271U 20100P   22121.73598367 -.00000274  00000+0 -79660-3 0  9995
2 47271  87.8814 290.2958 0001370  98.2060 261.9223 13.12444718 66901
ONEWEB-0126             
1 47272U 20100Q   22121.83648615  .00000459  00000+0  12412-2 0  9993
2 47272  87.8818 290.2662 0001384  88.0064 272.1223 13.12442295 66984
ONEWEB-0127             
1 47273U 20100R   22122.18186779 -.00000492  00000+0 -14022-2 0  9999
2 47273  87.8842 290.0866 0001654  94.6207 265.5111 13.12443276 67059
ONEWEB-0128             
1 47274U 20100S   22121.74523757  .00000046  00000+0  93611-4 0  9998
2 47274  87.8846 290.2113 0001623  75.0815 285.0493 13.12444312 67013
ONEWEB-0129             
1 47275U 20100T   22122.03167871 -.00000463  00000+0 -13230-2 0  9995
2 47275  87.8907 290.1949 0001000 165.8978 194.2178 13.12441867 66983
ONEWEB-0130             
1 47276U 20100U   22121.82840607  .00000284  00000+0  75387-3 0  9998
2 47276  87.8845 290.2463 0001651  85.5715 274.5602 13.12442144 66923
ONEWEB-0131             
1 47277U 20100V   22122.51221312  .00000030  00000+0  47557-4 0  9990
2 47277  87.8845 290.0562 0001773  86.4096 273.7236 13.12445680 67056
ONEWEB-0132             
1 47278U 20100W   22122.54226853  .00000273  00000+0  72314-3 0  9996
2 47278  87.8806 290.0953 0001392  97.0675 263.0612 13.12442880 66953
ONEWEB-0133             
1 47279U 20100X   22122.48218358 -.00000296  00000+0 -85736-3 0  9990
2 47279  87.8838 290.0480 0001585  92.5142 267.6168 13.12442952 67101
ONEWEB-0134             
1 47280U 20100Y   22122.52608984  .00000438  00000+0  11809-2 0  9990
2 47280  87.8853 290.0452 0001584  80.9076 279.2232 13.12441370 67086
ONEWEB-0135             
1 47281U 20100Z   22122.19108761 -.00000486  00000+0 -13861-2 0  9997
2 47281  87.8839 290.0953 0001496  87.6645 272.4655 13.12441445 67060
ONEWEB-0136             
1 47282U 20100AA  22122.51686048  .00000231  00000+0  60807-3 0  9992
2 47282  87.8894 290.0959 0001062  57.9024 302.2207 13.12441998 67033
ONEWEB-0137             
1 47283U 20100AB  22122.55379678 -.00000108  00000+0 -33621-3 0  9994
2 47283  87.8841 290.0779 0001445  98.9629 261.1663 13.12440495 66946
ONEWEB-0138             
1 47284U 20100AC  22121.84227101  .00000365  00000+0  97856-3 0  9992
2 47284  87.8865 290.2283 0001359  86.1590 273.9694 13.12442778 66935
ONEWEB-0139             
1 47285U 20100AD  22122.50067339 -.00000373  00000+0 -10726-2 0  9993
2 47285  87.8823 290.1589 0001444  82.2832 277.8460 13.12442758 67099
ONEWEB-0140             
1 47286U 20100AE  22121.83534400  .00000380  00000+0  10221-2 0  9993
2 47286  87.8820 290.2276 0001508  84.8761 275.2539 13.12444272 66979
ONEWEB-0141             
1 47287U 20100AF  22122.46947159  .00000110  00000+0  27031-3 0  9992
2 47287  87.8851 290.0689 0001706 111.6469 248.4841 13.12459115 67043
ONEWEB-0142             
1 47288U 20100AG  22121.85037131  .00000286  00000+0  75978-3 0  9992
2 47288  87.8810 290.2874 0001488 103.5824 256.5470 13.12446439 66951
ONEWEB-0143             
1 47289U 20100AH  22122.18647738 -.00000705  00000+0 -19965-2 0  9991
2 47289  87.8843 290.1461 0001716  90.9191 269.2134 13.12440767 66977
ONEWEB-0144             
1 47290U 20100AJ  22122.53994462  .00000272  00000+0  72195-3 0  9993
2 47290  87.8887 290.0611 0001589  84.7824 275.3486 13.12442709 66948
ONEWEB-0145             
1 47291U 20100AK  22121.82378984  .00000126  00000+0  31491-3 0  9992
2 47291  87.8818 290.2045 0001534  92.3626 267.7678 13.12443467 67043
ONEWEB-0146             
1 47292U 20100AL  22121.97163286  .00000066  00000+0  14929-3 0  9996
2 47292  87.8842 290.2107 0002823  86.3031 273.8420 13.12444585 66971
ONEWEB-0147             
1 47293U 20100AM  22122.55148853 -.00000059  00000+0 -19926-3 0  9991
2 47293  87.8822 290.0872 0001024  78.4135 281.7108 13.12440088 66948
YUANGUANG               
1 47296U 20102A   22122.53770601  .00012412  00000+0  55090-3 0  9992
2 47296  97.4290 220.3267 0006045 251.7855 120.3908 15.21691739 75381
HAISI 1                 
1 47297U 20102B   22122.49772756  .00003630  00000+0  16922-3 0  9994
2 47297  97.4277 220.2923 0004610 228.9738 227.6308 15.20501753 75365
XJY-7                   
1 47298U 20102C   22122.23441118  .00014579  00000+0  60776-3 0  9992
2 47298  97.3878 220.3074 0004702 354.6667  89.0698 15.23791393 75524
TIANQI-8                
1 47299U 20102D   22122.50596616  .00012170  00000+0  52666-3 0  9991
2 47299  97.4296 221.0120 0004120 206.3825 250.1853 15.22569004 75416
ET-SMART-RSS            
1 47300U 20102E   22122.53762910  .00020992  00000+0  83693-3 0  9994
2 47300  97.4308 222.0625 0004755 164.6825 252.3245 15.25214065 75487
YAOGAN-33               
1 47302U 20103A   22122.39890537  .00000543  00000+0  12459-3 0  9990
2 47302  98.2167  13.9039 0001351  95.1841 264.9510 14.59302833 71579
WEINA 2                 
1 47303U 20103B   22122.44984766  .00001078  00000+0  23757-3 0  9992
2 47303  98.2187  14.0938 0001197  64.2789 295.8537 14.59361518 71586
TURKSAT 5A              
1 47306U 21001A   22122.15774847  .00000156  00000+0  00000+0 0  9996
2 47306   0.0069 223.4682 0000178  37.3928  46.8987  1.00271253  4874
CAPE-3                  
1 47309U 21002A   22122.50059019  .00008732  00000+0  36915-3 0  9992
2 47309  60.6823 177.2946 0015429 278.6760  81.2580 15.23846539 71449
POLARCUBE               
1 47310U 21002B   22121.63750455  .00018229  00000+0  69871-3 0  9998
2 47310  60.6808 177.5178 0011396 285.7320  74.2512 15.26588758 71349
